{"type": "FeatureCollection", "features": [ {"type": "Feature", "properties": {"norad_id": 29906, "name": "FENGYUN 1C DEB", "group": "fengyun-1c-debris", "lat": 32.11119163237167, "lon": -69.99179356992798, "alt_km": 704.2722279285881, "timestamp": "2025-12-26T16:33:55.844244+00:00", "meta": {"OBJECT_NAME": "FENGYUN 1C DEB", "OBJECT_ID": "1999-025HC", "EPOCH": "2025-12-26T05:57:11.911392", "MEAN_MOTION": 14.49860492, "ECCENTRICITY": 0.00361401, "INCLINATION": 98.7049, "RA_OF_ASC_NODE": 104.0342, "ARG_OF_PERICENTER": 109.423, "MEAN_ANOMALY": 251.0875, "EPHEMERIS_TYPE": 0, "CLASSIFICATION_TYPE": "U", "NORAD_CAT_ID": 29906, "ELEMENT_SET_NO": 999, "REV_AT_EPOCH": 98353, "BSTAR": 0.0021985593, "MEAN_MOTION_DOT": 8.521e-05, "MEAN_MOTION_DDOT": 0}, "tle": {"line1": "1 29906U 99025HC  25360.24805453  .00008521  00000+0  21986-2 0  9991", "line2": "2 29906  98.7049 104.0342 0036140 109.4230 251.0875 14.49860492983535"}}, "geometry": {"type": "Point", "coordinates": [-69.99179356992798, 32.11119163237167]}}, {"type": "Feature", "properties": {"norad_id": 29907, "name": "FENGYUN 1C DEB", "group": "fengyun-1c-debris", "lat": -3.06086932574477, "lon": -112.91177802556264, "alt_km": 802.3524330990977, "timestamp": "2025-12-26T16:33:55.844253+00:00", "meta": {"OBJECT_NAME": "FENGYUN 1C DEB", "OBJECT_ID": "1999-025HD", "EPOCH": "2025-12-26T03:55:22.734048", "MEAN_MOTION": 14.11709581, "ECCENTRICITY": 0.00848969, "INCLINATION": 99.1106, "RA_OF_ASC_NODE": 67.0451, "ARG_OF_PERICENTER": 212.2248, "MEAN_ANOMALY": 175.547, "EPHEMERIS_TYPE": 0, "CLASSIFICATION_TYPE": "U", "NORAD_CAT_ID": 29907, "ELEMENT_SET_NO": 999, "REV_AT_EPOCH": 96788, "BSTAR": 0.0013463495, "MEAN_MOTION_DOT": 2.49e-05, "MEAN_MOTION_DDOT": 0}, "tle": {"line1": "1 29907U 99025HD  25360.16345757  .00002490  00000+0  13463-2 0  9999", "line2": "2 29907  99.1106  67.0451 0084896 212.2248 175.5470 14.11709581967888"}}, "geometry": {"type": "Point", "coordinates": [-112.91177802556264, -3.06086932574477]}}, {"type": "Feature", "properties": {"norad_id": 29909, "name": "FENGYUN 1C DEB", "group": "fengyun-1c-debris", "lat": 41.41007187041395, "lon": -67.34222023475282, "alt_km": 731.2484907998814, "timestamp": "2025-12-26T16:33:55.844262+00:00", "meta": {"OBJECT_NAME": "FENGYUN 1C DEB", "OBJECT_ID": "1999-025HF", "EPOCH": "2025-12-26T06:10:44.226048", "MEAN_MOTION": 14.55342823, "ECCENTRICITY": 0.00382025, "INCLINATION": 98.6341, "RA_OF_ASC_NODE": 104.5096, "ARG_OF_PERICENTER": 332.3824, "MEAN_ANOMALY": 59.3588, "EPHEMERIS_TYPE": 0, "CLASSIFICATION_TYPE": "U", "NORAD_CAT_ID": 29909, "ELEMENT_SET_NO": 999, "REV_AT_EPOCH": 98602, "BSTAR": 0.0020345049, "MEAN_MOTION_DOT": 8.872e-05, "MEAN_MOTION_DDOT": 0}, "tle": {"line1": "1 29909U 99025HF  25360.25745632  .00008872  00000+0  20345-2 0  9994", "line2": "2 29909  98.6341 104.5096 0038202 332.3824  59.3588 14.55342823986027"}}, "geometry": {"type": "Point", "coordinates": [-67.34222023475282, 41.41007187041395]}}, {"type": "Feature", "properties": {"norad_id": 29911, "name": "FENGYUN 1C DEB", "group": "fengyun-1c-debris", "lat": -76.78132234035435, "lon": -177.2000636131516, "alt_km": 853.0974252287806, "timestamp": "2025-12-26T16:33:55.844271+00:00", "meta": {"OBJECT_NAME": "FENGYUN 1C DEB", "OBJECT_ID": "1999-025HH", "EPOCH": "2025-12-26T02:03:38.390400", "MEAN_MOTION": 14.1889286, "ECCENTRICITY": 0.00274211, "INCLINATION": 98.7142, "RA_OF_ASC_NODE": 42.9704, "ARG_OF_PERICENTER": 114.0239, "MEAN_ANOMALY": 300.4238, "EPHEMERIS_TYPE": 0, "CLASSIFICATION_TYPE": "U", "NORAD_CAT_ID": 29911, "ELEMENT_SET_NO": 999, "REV_AT_EPOCH": 97620, "BSTAR": 0.00067993272, "MEAN_MOTION_DOT": 1.378e-05, "MEAN_MOTION_DDOT": 0}, "tle": {"line1": "1 29911U 99025HH  25360.08586100  .00001378  00000+0  67993-3 0  9996", "line2": "2 29911  98.7142  42.9704 0027421 114.0239 300.4238 14.18892860976208"}}, "geometry": {"type": "Point", "coordinates": [-177.2000636131516, -76.78132234035435]}}, {"type": "Feature", "properties": {"norad_id": 29912, "name": "FENGYUN 1C DEB", "group": "fengyun-1c-debris", "lat": -8.681152253351382, "lon": 99.8362058505767, "alt_km": 782.6471531433453, "timestamp": "2025-12-26T16:33:55.844280+00:00", "meta": {"OBJECT_NAME": "FENGYUN 1C DEB", "OBJECT_ID": "1999-025HJ", "EPOCH": "2025-12-26T05:14:11.793120", "MEAN_MOTION": 14.43163061, "ECCENTRICITY": 0.00433023, "INCLINATION": 98.7374, "RA_OF_ASC_NODE": 98.0068, "ARG_OF_PERICENTER": 180.1988, "MEAN_ANOMALY": 240.0585, "EPHEMERIS_TYPE": 0, "CLASSIFICATION_TYPE": "U", "NORAD_CAT_ID": 29912, "ELEMENT_SET_NO": 999, "REV_AT_EPOCH": 98233, "BSTAR": 0.0021628508, "MEAN_MOTION_DOT": 7.309e-05, "MEAN_MOTION_DDOT": 0}, "tle": {"line1": "1 29912U 99025HJ  25360.21819205  .00007309  00000+0  21629-2 0  9992", "line2": "2 29912  98.7374  98.0068 0043302 180.1988 240.0585 14.43163061982339"}}, "geometry": {"type": "Point", "coordinates": [99.8362058505767, -8.681152253351382]}}, {"type": "Feature", "properties": {"norad_id": 29913, "name": "FENGYUN 1C DEB", "group": "fengyun-1c-debris", "lat": 67.50587362693993, "lon": -158.90563866809117, "alt_km": 884.5111216425476, "timestamp": "2025-12-26T16:33:55.844289+00:00", "meta": {"OBJECT_NAME": "FENGYUN 1C DEB", "OBJECT_ID": "1999-025HK", "EPOCH": "2025-12-26T05:51:42.507936", "MEAN_MOTION": 14.07396456, "ECCENTRICITY": 0.00620177, "INCLINATION": 98.7881, "RA_OF_ASC_NODE": 358.7247, "ARG_OF_PERICENTER": 232.8269, "MEAN_ANOMALY": 140.1357, "EPHEMERIS_TYPE": 0, "CLASSIFICATION_TYPE": "U", "NORAD_CAT_ID": 29913, "ELEMENT_SET_NO": 999, "REV_AT_EPOCH": 97155, "BSTAR": 0.00024177676, "MEAN_MOTION_DOT": 3.7e-06, "MEAN_MOTION_DDOT": 0}, "tle": {"line1": "1 29913U 99025HK  25360.24424199  .00000370  00000+0  24178-3 0  9994", "line2": "2 29913  98.7881 358.7247 0062017 232.8269 140.1357 14.07396456971554"}}, "geometry": {"type": "Point", "coordinates": [-158.90563866809117, 67.50587362693993]}}, {"type": "Feature", "properties": {"norad_id": 29914, "name": "FENGYUN 1C DEB", "group": "fengyun-1c-debris", "lat": 37.331772226707905, "lon": 22.05377826283994, "alt_km": 859.5478493429282, "timestamp": "2025-12-26T16:33:55.844298+00:00", "meta": {"OBJECT_NAME": "FENGYUN 1C DEB", "OBJECT_ID": "1999-025HL", "EPOCH": "2025-12-26T07:53:23.314848", "MEAN_MOTION": 14.03132714, "ECCENTRICITY": 0.00366222, "INCLINATION": 98.8422, "RA_OF_ASC_NODE": 28.5207, "ARG_OF_PERICENTER": 78.1317, "MEAN_ANOMALY": 295.1136, "EPHEMERIS_TYPE": 0, "CLASSIFICATION_TYPE": "U", "NORAD_CAT_ID": 29914, "ELEMENT_SET_NO": 999, "REV_AT_EPOCH": 96977, "BSTAR": 3.921913e-06, "MEAN_MOTION_DOT": -3.6e-07, "MEAN_MOTION_DDOT": 0}, "tle": {"line1": "1 29914U 99025HL  25360.32874207 -.00000036  00000+0  39219-5 0  9997", "line2": "2 29914  98.8422  28.5207 0036622  78.1317 295.1136 14.03132714969771"}}, "geometry": {"type": "Point", "coordinates": [22.05377826283994, 37.331772226707905]}}, {"type": "Feature", "properties": {"norad_id": 29916, "name": "FENGYUN 1C DEB", "group": "fengyun-1c-debris", "lat": -64.39330572498505, "lon": 179.28858423778593, "alt_km": 867.5041902403518, "timestamp": "2025-12-26T16:33:55.844307+00:00", "meta": {"OBJECT_NAME": "FENGYUN 1C DEB", "OBJECT_ID": "1999-025HN", "EPOCH": "2025-12-26T07:11:16.783584", "MEAN_MOTION": 13.56999458, "ECCENTRICITY": 0.027156, "INCLINATION": 99.1936, "RA_OF_ASC_NODE": 18.6726, "ARG_OF_PERICENTER": 223.8086, "MEAN_ANOMALY": 273.1438, "EPHEMERIS_TYPE": 0, "CLASSIFICATION_TYPE": "U", "NORAD_CAT_ID": 29916, "ELEMENT_SET_NO": 999, "REV_AT_EPOCH": 93636, "BSTAR": 0.00060280124, "MEAN_MOTION_DOT": 5.02e-06, "MEAN_MOTION_DDOT": 0}, "tle": {"line1": "1 29916U 99025HN  25360.29949981  .00000502  00000+0  60280-3 0  9994", "line2": "2 29916  99.1936  18.6726 0271560 223.8086 273.1438 13.56999458936360"}}, "geometry": {"type": "Point", "coordinates": [179.28858423778593, -64.39330572498505]}}, {"type": "Feature", "properties": {"norad_id": 29917, "name": "FENGYUN 1C DEB", "group": "fengyun-1c-debris", "lat": -69.92533383457453, "lon": -113.41354301055655, "alt_km": 1159.0114074687935, "timestamp": "2025-12-26T16:33:55.844316+00:00", "meta": {"OBJECT_NAME": "FENGYUN 1C DEB", "OBJECT_ID": "1999-025HP", "EPOCH": "2025-12-26T01:53:09.629952", "MEAN_MOTION": 13.70446968, "ECCENTRICITY": 0.02235943, "INCLINATION": 98.8765, "RA_OF_ASC_NODE": 220.705, "ARG_OF_PERICENTER": 89.0016, "MEAN_ANOMALY": 64.0255, "EPHEMERIS_TYPE": 0, "CLASSIFICATION_TYPE": "U", "NORAD_CAT_ID": 29917, "ELEMENT_SET_NO": 999, "REV_AT_EPOCH": 94313, "BSTAR": 0.0013423069, "MEAN_MOTION_DOT": 1.379e-05, "MEAN_MOTION_DDOT": 0}, "tle": {"line1": "1 29917U 99025HP  25360.07858368  .00001379  00000+0  13423-2 0  9998", "line2": "2 29917  98.8765 220.7050 0223594  89.0016  64.0255 13.70446968943138"}}, "geometry": {"type": "Point", "coordinates": [-113.41354301055655, -69.92533383457453]}}, {"type": "Feature", "properties": {"norad_id": 29918, "name": "FENGYUN 1C DEB", "group": "fengyun-1c-debris", "lat": 47.490320846909235, "lon": 73.65826483262977, "alt_km": 782.1189661666749, "timestamp": "2025-12-26T16:33:55.844326+00:00", "meta": {"OBJECT_NAME": "FENGYUN 1C DEB", "OBJECT_ID": "1999-025HQ", "EPOCH": "2025-12-26T04:52:12.261216", "MEAN_MOTION": 14.3370172, "ECCENTRICITY": 0.00136675, "INCLINATION": 98.8531, "RA_OF_ASC_NODE": 82.9495, "ARG_OF_PERICENTER": 273.9828, "MEAN_ANOMALY": 140.491, "EPHEMERIS_TYPE": 0, "CLASSIFICATION_TYPE": "U", "NORAD_CAT_ID": 29918, "ELEMENT_SET_NO": 999, "REV_AT_EPOCH": 97987, "BSTAR": 0.0015462253, "MEAN_MOTION_DOT": 4.251e-05, "MEAN_MOTION_DDOT": 0}, "tle": {"line1": "1 29918U 99025HQ  25360.20291969  .00004251  00000+0  15462-2 0  9999", "line2": "2 29918  98.8531  82.9495 0013667 273.9828 140.4910 14.33701720979871"}}, "geometry": {"type": "Point", "coordinates": [73.65826483262977, 47.490320846909235]}}]}